[
  {
    "COMMENT": "GENERATED VIA SPACETRACK.ORG API",
    "ORIGINATOR": "18 SPCS",
    "NORAD_CAT_ID": "43682",
    "OBJECT_NAME": "H-2A R/B",
    "OBJECT_TYPE": "ROCKET BODY",
    "CLASSIFICATION_TYPE": "U",
    "INTLDES": "18084L",
    "EPOCH": "2020-01-26 13:40:50",
    "EPOCH_MICROSECONDS": "487456",
    "MEAN_MOTION": "15.02765718",
    "ECCENTRICITY": "0.005631",
    "INCLINATION": "98.8983",
    "RA_OF_ASC_NODE": "212.4948",
    "ARG_OF_PERICENTER": "241.635",
    "MEAN_ANOMALY": "117.9167",
    "EPHEMERIS_TYPE": "0",
    "ELEMENT_SET_NO": "999",
    "REV_AT_EPOCH": "6819",
    "BSTAR": "0.000022548",
    "MEAN_MOTION_DOT": "0.00000226",
    "MEAN_MOTION_DDOT": "0",
    "FILE": "2690423",
    "TLE_LINE0": "0 H-2A R/B",
    "TLE_LINE1": "1 43682U 18084L   20026.57002879  .00000226  00000-0  22548-4 0  9997",
    "TLE_LINE2": "2 43682  98.8983 212.4948 0056310 241.6350 117.9167 15.02765718 68194",
    "OBJECT_ID": "2018-084L",
    "OBJECT_NUMBER": "43682",
    "SEMIMAJOR_AXIS": "6936.510",
    "PERIOD": "95.823",
    "APOGEE": "597.434",
    "PERIGEE": "519.315",
    "DECAYED": "0"
  },
  {
    "COMMENT": "GENERATED VIA SPACETRACK.ORG API",
    "ORIGINATOR": "18 SPCS",
    "NORAD_CAT_ID": "43682",
    "OBJECT_NAME": "H-2A R/B",
    "OBJECT_TYPE": "ROCKET BODY",
    "CLASSIFICATION_TYPE": "U",
    "INTLDES": "18084L",
    "EPOCH": "2020-01-27 02:27:53",
    "EPOCH_MICROSECONDS": "683488",
    "MEAN_MOTION": "15.027658",
    "ECCENTRICITY": "0.0056363",
    "INCLINATION": "98.898",
    "RA_OF_ASC_NODE": "213.1056",
    "ARG_OF_PERICENTER": "239.8545",
    "MEAN_ANOMALY": "119.7076",
    "EPHEMERIS_TYPE": "0",
    "ELEMENT_SET_NO": "999",
    "REV_AT_EPOCH": "6827",
    "BSTAR": "0.000020087",
    "MEAN_MOTION_DOT": "0.00000192",
    "MEAN_MOTION_DDOT": "0",
    "FILE": "2690976",
    "TLE_LINE0": "0 H-2A R/B",
    "TLE_LINE1": "1 43682U 18084L   20027.10270467 +.00000192 +00000-0 +20087-4 0  9995",
    "TLE_LINE2": "2 43682 098.8980 213.1056 0056363 239.8545 119.7076 15.02765800068272",
    "OBJECT_ID": "2018-084L",
    "OBJECT_NUMBER": "43682",
    "SEMIMAJOR_AXIS": "6936.509",
    "PERIOD": "95.823",
    "APOGEE": "597.471",
    "PERIGEE": "519.278",
    "DECAYED": "0"
  },
  {
    "COMMENT": "GENERATED VIA SPACETRACK.ORG API",
    "ORIGINATOR": "18 SPCS",
    "NORAD_CAT_ID": "43682",
    "OBJECT_NAME": "H-2A R/B",
    "OBJECT_TYPE": "ROCKET BODY",
    "CLASSIFICATION_TYPE": "U",
    "INTLDES": "18084L",
    "EPOCH": "2020-01-27 23:14:21",
    "EPOCH_MICROSECONDS": "349824",
    "MEAN_MOTION": "15.02766129",
    "ECCENTRICITY": "0.0056329",
    "INCLINATION": "98.898",
    "RA_OF_ASC_NODE": "214.099",
    "ARG_OF_PERICENTER": "237.0081",
    "MEAN_ANOMALY": "122.5719",
    "EPHEMERIS_TYPE": "0",
    "ELEMENT_SET_NO": "999",
    "REV_AT_EPOCH": "6840",
    "BSTAR": "0.000018798",
    "MEAN_MOTION_DOT": "0.00000175",
    "MEAN_MOTION_DDOT": "0",
    "FILE": "2691141",
    "TLE_LINE0": "0 H-2A R/B",
    "TLE_LINE1": "1 43682U 18084L   20027.96830266 +.00000175 +00000-0 +18798-4 0  9995",
    "TLE_LINE2": "2 43682 098.8980 214.0990 0056329 237.0081 122.5719 15.02766129068402",
    "OBJECT_ID": "2018-084L",
    "OBJECT_NUMBER": "43682",
    "SEMIMAJOR_AXIS": "6936.508",
    "PERIOD": "95.823",
    "APOGEE": "597.446",
    "PERIGEE": "519.301",
    "DECAYED": "0"
  },
  {
    "COMMENT": "GENERATED VIA SPACETRACK.ORG API",
    "ORIGINATOR": "18 SPCS",
    "NORAD_CAT_ID": "43682",
    "OBJECT_NAME": "H-2A R/B",
    "OBJECT_TYPE": "ROCKET BODY",
    "CLASSIFICATION_TYPE": "U",
    "INTLDES": "18084L",
    "EPOCH": "2020-01-28 02:26:07",
    "EPOCH_MICROSECONDS": "143648",
    "MEAN_MOTION": "15.02766",
    "ECCENTRICITY": "0.0056363",
    "INCLINATION": "98.8979",
    "RA_OF_ASC_NODE": "214.2516",
    "ARG_OF_PERICENTER": "236.5793",
    "MEAN_ANOMALY": "123.0019",
    "EPHEMERIS_TYPE": "0",
    "ELEMENT_SET_NO": "999",
    "REV_AT_EPOCH": "6842",
    "BSTAR": "0.000016742",
    "MEAN_MOTION_DOT": "0.00000146",
    "MEAN_MOTION_DDOT": "0",
    "FILE": "2691216",
    "TLE_LINE0": "0 H-2A R/B",
    "TLE_LINE1": "1 43682U 18084L   20028.10147157  .00000146  00000-0  16742-4 0  9997",
    "TLE_LINE2": "2 43682  98.8979 214.2516 0056363 236.5793 123.0019 15.02766000 68427",
    "OBJECT_ID": "2018-084L",
    "OBJECT_NUMBER": "43682",
    "SEMIMAJOR_AXIS": "6936.509",
    "PERIOD": "95.823",
    "APOGEE": "597.470",
    "PERIGEE": "519.277",
    "DECAYED": "0"
  },
  {
    "COMMENT": "GENERATED VIA SPACETRACK.ORG API",
    "ORIGINATOR": "18 SPCS",
    "NORAD_CAT_ID": "43682",
    "OBJECT_NAME": "H-2A R/B",
    "OBJECT_TYPE": "ROCKET BODY",
    "CLASSIFICATION_TYPE": "U",
    "INTLDES": "18084L",
    "EPOCH": "2020-01-28 13:37:17",
    "EPOCH_MICROSECONDS": "438016",
    "MEAN_MOTION": "15.02766066",
    "ECCENTRICITY": "0.0056365",
    "INCLINATION": "98.8979",
    "RA_OF_ASC_NODE": "214.7866",
    "ARG_OF_PERICENTER": "235.0181",
    "MEAN_ANOMALY": "124.5735",
    "EPHEMERIS_TYPE": "0",
    "ELEMENT_SET_NO": "999",
    "REV_AT_EPOCH": "6849",
    "BSTAR": "0.000015273",
    "MEAN_MOTION_DOT": "0.00000126",
    "MEAN_MOTION_DDOT": "0",
    "FILE": "2691543",
    "TLE_LINE0": "0 H-2A R/B",
    "TLE_LINE1": "1 43682U 18084L   20028.56756294 +.00000126 +00000-0 +15273-4 0  9991",
    "TLE_LINE2": "2 43682 098.8979 214.7866 0056365 235.0181 124.5735 15.02766066068497",
    "OBJECT_ID": "2018-084L",
    "OBJECT_NUMBER": "43682",
    "SEMIMAJOR_AXIS": "6936.508",
    "PERIOD": "95.823",
    "APOGEE": "597.471",
    "PERIGEE": "519.276",
    "DECAYED": "0"
  },
  {
    "COMMENT": "GENERATED VIA SPACETRACK.ORG API",
    "ORIGINATOR": "18 SPCS",
    "NORAD_CAT_ID": "43682",
    "OBJECT_NAME": "H-2A R/B",
    "OBJECT_TYPE": "ROCKET BODY",
    "CLASSIFICATION_TYPE": "U",
    "INTLDES": "18084L",
    "EPOCH": "2020-01-28 23:12:34",
    "EPOCH_MICROSECONDS": "831584",
    "MEAN_MOTION": "15.02766172",
    "ECCENTRICITY": "0.0056369",
    "INCLINATION": "98.8981",
    "RA_OF_ASC_NODE": "215.2451",
    "ARG_OF_PERICENTER": "233.6823",
    "MEAN_ANOMALY": "125.9186",
    "EPHEMERIS_TYPE": "0",
    "ELEMENT_SET_NO": "999",
    "REV_AT_EPOCH": "6855",
    "BSTAR": "0.000014773",
    "MEAN_MOTION_DOT": "0.00000119",
    "MEAN_MOTION_DDOT": "0",
    "FILE": "2691723",
    "TLE_LINE0": "0 H-2A R/B",
    "TLE_LINE1": "1 43682U 18084L   20028.96706981 +.00000119 +00000-0 +14773-4 0  9999",
    "TLE_LINE2": "2 43682 098.8981 215.2451 0056369 233.6823 125.9186 15.02766172068557",
    "OBJECT_ID": "2018-084L",
    "OBJECT_NUMBER": "43682",
    "SEMIMAJOR_AXIS": "6936.508",
    "PERIOD": "95.823",
    "APOGEE": "597.474",
    "PERIGEE": "519.273",
    "DECAYED": "0"
  },
  {
    "COMMENT": "GENERATED VIA SPACETRACK.ORG API",
    "ORIGINATOR": "18 SPCS",
    "NORAD_CAT_ID": "43682",
    "OBJECT_NAME": "H-2A R/B",
    "OBJECT_TYPE": "ROCKET BODY",
    "CLASSIFICATION_TYPE": "U",
    "INTLDES": "18084L",
    "EPOCH": "2020-01-29 11:59:38",
    "EPOCH_MICROSECONDS": "71680",
    "MEAN_MOTION": "15.02765862",
    "ECCENTRICITY": "0.0056334",
    "INCLINATION": "98.8983",
    "RA_OF_ASC_NODE": "215.8571",
    "ARG_OF_PERICENTER": "231.9164",
    "MEAN_ANOMALY": "127.697",
    "EPHEMERIS_TYPE": "0",
    "ELEMENT_SET_NO": "999",
    "REV_AT_EPOCH": "6863",
    "BSTAR": "0.0000099792",
    "MEAN_MOTION_DOT": "0.00000053",
    "MEAN_MOTION_DDOT": "0",
    "FILE": "2691933",
    "TLE_LINE0": "0 H-2A R/B",
    "TLE_LINE1": "1 43682U 18084L   20029.49974620  .00000053  00000-0  99792-5 0  9997",
    "TLE_LINE2": "2 43682  98.8983 215.8571 0056334 231.9164 127.6970 15.02765862 68633",
    "OBJECT_ID": "2018-084L",
    "OBJECT_NUMBER": "43682",
    "SEMIMAJOR_AXIS": "6936.509",
    "PERIOD": "95.823",
    "APOGEE": "597.450",
    "PERIGEE": "519.298",
    "DECAYED": "0"
  },
  {
    "COMMENT": "GENERATED VIA SPACETRACK.ORG API",
    "ORIGINATOR": "18 SPCS",
    "NORAD_CAT_ID": "43682",
    "OBJECT_NAME": "H-2A R/B",
    "OBJECT_TYPE": "ROCKET BODY",
    "CLASSIFICATION_TYPE": "U",
    "INTLDES": "18084L",
    "EPOCH": "2020-01-29 23:10:48",
    "EPOCH_MICROSECONDS": "365184",
    "MEAN_MOTION": "15.02766029",
    "ECCENTRICITY": "0.0056363",
    "INCLINATION": "98.8994",
    "RA_OF_ASC_NODE": "216.3936",
    "ARG_OF_PERICENTER": "230.176",
    "MEAN_ANOMALY": "129.4522",
    "EPHEMERIS_TYPE": "0",
    "ELEMENT_SET_NO": "999",
    "REV_AT_EPOCH": "6870",
    "BSTAR": "0.000011125",
    "MEAN_MOTION_DOT": "0.00000068",
    "MEAN_MOTION_DDOT": "0",
    "FILE": "2692201",
    "TLE_LINE0": "0 H-2A R/B",
    "TLE_LINE1": "1 43682U 18084L   20029.96583756 +.00000068 +00000-0 +11125-4 0  9994",
    "TLE_LINE2": "2 43682 098.8994 216.3936 0056363 230.1760 129.4522 15.02766029068708",
    "OBJECT_ID": "2018-084L",
    "OBJECT_NUMBER": "43682",
    "SEMIMAJOR_AXIS": "6936.509",
    "PERIOD": "95.823",
    "APOGEE": "597.470",
    "PERIGEE": "519.277",
    "DECAYED": "0"
  },
  {
    "COMMENT": "GENERATED VIA SPACETRACK.ORG API",
    "ORIGINATOR": "18 SPCS",
    "NORAD_CAT_ID": "43682",
    "OBJECT_NAME": "H-2A R/B",
    "OBJECT_TYPE": "ROCKET BODY",
    "CLASSIFICATION_TYPE": "U",
    "INTLDES": "18084L",
    "EPOCH": "2020-01-30 11:57:51",
    "EPOCH_MICROSECONDS": "581952",
    "MEAN_MOTION": "15.0276555",
    "ECCENTRICITY": "0.0056381",
    "INCLINATION": "98.8994",
    "RA_OF_ASC_NODE": "217.0051",
    "ARG_OF_PERICENTER": "228.2789",
    "MEAN_ANOMALY": "131.3603",
    "EPHEMERIS_TYPE": "0",
    "ELEMENT_SET_NO": "999",
    "REV_AT_EPOCH": "6878",
    "BSTAR": "0.0000051042",
    "MEAN_MOTION_DOT": "-0.00000015",
    "MEAN_MOTION_DDOT": "0",
    "FILE": "2692564",
    "TLE_LINE0": "0 H-2A R/B",
    "TLE_LINE1": "1 43682U 18084L   20030.49851368 -.00000015 +00000-0 +51042-5 0  9997",
    "TLE_LINE2": "2 43682 098.8994 217.0051 0056381 228.2789 131.3603 15.02765550068781",
    "OBJECT_ID": "2018-084L",
    "OBJECT_NUMBER": "43682",
    "SEMIMAJOR_AXIS": "6936.510",
    "PERIOD": "95.823",
    "APOGEE": "597.484",
    "PERIGEE": "519.266",
    "DECAYED": "0"
  }
]